*******************************************************************************
Ephemeris / WWW_USER Mon Mar 24 08:47:40 2025 Pasadena, USA      / Horizons    
*******************************************************************************
Target body name: (2018 OG)                       {source: JPL#12}
Center body name: Earth (399)                     {source: DE441}
Center-site name: Mauna Kea
*******************************************************************************
Start time      : A.D. 2018-Nov-11 03:53:00.0000 UT      
Stop  time      : A.D. 2018-Nov-11 16:18:00.0000 UT      
Step-size       : 1 minutes
*******************************************************************************
Target pole/equ : undefined
Target radii    : undefined                                                    
Center geodetic : 204.5278, 19.8260847, 4.21024   {E-lon(deg),Lat(deg),Alt(km)}
Center cylindric: 204.5278, 6006.35451, 2151.0229 {E-lon(deg),Dxy(km),Dz(km)}
Center pole/equ : ITRF93                          {East-longitude positive}
Center radii    : 6378.137, 6378.137, 6356.752 km {Equator_a, b, pole_c}       
Target primary  : Sun
Vis. interferer : MOON (R_eq= 1737.400) km        {source: DE441}
Rel. light bend : Sun                             {source: DE441}
Rel. lght bnd GM: 1.3271E+11 km^3/s^2                                          
Small-body perts: Yes                             {source: SB441-N16}
Atmos refraction: NO (AIRLESS)
RA format       : HMS
Time format     : CAL 
Calendar mode   : Mixed Julian/Gregorian
RTS-only print  : NO       
EOP file        : eop.250321.p250617                                           
EOP coverage    : DATA-BASED 1962-JAN-20 TO 2025-MAR-21. PREDICTS-> 2025-JUN-16
Units conversion: 1 au= 149597870.700 km, c= 299792.458 km/s, 1 day= 86400.0 s 
Table cut-offs 1: Elevation (-90.0deg=NO ),Airmass (>38.000=NO), Daylight (YES)
Table cut-offs 2: Solar elongation (  0.0,180.0=NO ),Local Hour Angle( 0.0=NO )
Table cut-offs 3: RA/DEC angular rate (     0.0=NO )                           
*******************************************************************************
Initial IAU76/J2000 heliocentric ecliptic osculating elements (au, days, deg.):
  EPOCH=  2458389.5 ! 2018-Sep-28.00 (TDB)         Residual RMS= .17662        
   EC= .5817218672922059   QR= .9873203561553971   TP= 2458366.942240702       
   OM= 131.0345430575832   W=  220.7633135105564   IN= 9.123860581277821       
  Equivalent ICRF heliocentric cartesian coordinates (au, au/d):
   X= 9.625437195102586E-01  Y= 3.686106454146055E-01  Z=-5.877845729655690E-03
  VX=-3.555418036941177E-03 VY= 1.979451357965206E-02 VZ= 6.659913004156397E-03
Asteroid physical parameters (km, seconds, rotational period in hours):        
   GM= n.a.                RAD= n.a.               ROTPER= n.a.                
   H= 23.6                 G= .150                 B-V= n.a.                   
                           ALBEDO= n.a.            STYP= n.a.                  
*******************************************************************************
 Date__(UT)__HR:MN     R.A._________(ICRF)_________DEC
******************************************************
$$SOE
 2018-Nov-11 10:02     06 22 56.267155 -03 07 48.25174
 2018-Nov-11 10:03     06 22 56.207285 -03 07 47.84384
 2018-Nov-11 10:04     06 22 56.147394 -03 07 47.43593
 2018-Nov-11 10:05     06 22 56.087484 -03 07 47.02800
 2018-Nov-11 10:06     06 22 56.027553 -03 07 46.62004
 2018-Nov-11 10:07     06 22 55.967602 -03 07 46.21206
 2018-Nov-11 10:08     06 22 55.907632 -03 07 45.80405
 2018-Nov-11 10:09     06 22 55.847641 -03 07 45.39603
 2018-Nov-11 10:10     06 22 55.787632 -03 07 44.98798
 2018-Nov-11 10:11     06 22 55.727602 -03 07 44.57991
 2018-Nov-11 10:12     06 22 55.667553 -03 07 44.17182
 2018-Nov-11 10:13     06 22 55.607484 -03 07 43.76370
 2018-Nov-11 10:14     06 22 55.547396 -03 07 43.35556
 2018-Nov-11 10:15     06 22 55.487289 -03 07 42.94740
 2018-Nov-11 10:16     06 22 55.427162 -03 07 42.53922
 2018-Nov-11 10:17     06 22 55.367016 -03 07 42.13101
 2018-Nov-11 10:18     06 22 55.306851 -03 07 41.72278
 2018-Nov-11 10:19     06 22 55.246667 -03 07 41.31452
 2018-Nov-11 10:20     06 22 55.186463 -03 07 40.90625
 2018-Nov-11 10:21     06 22 55.126241 -03 07 40.49794
 2018-Nov-11 10:22     06 22 55.066001 -03 07 40.08962
 2018-Nov-11 10:23     06 22 55.005741 -03 07 39.68127
 2018-Nov-11 10:24     06 22 54.945463 -03 07 39.27290
 2018-Nov-11 10:25     06 22 54.885166 -03 07 38.86451
 2018-Nov-11 10:26     06 22 54.824850 -03 07 38.45609
 2018-Nov-11 10:27     06 22 54.764516 -03 07 38.04765
 2018-Nov-11 10:28     06 22 54.704164 -03 07 37.63918
 2018-Nov-11 10:29     06 22 54.643793 -03 07 37.23069
 2018-Nov-11 10:30     06 22 54.583405 -03 07 36.82218
 2018-Nov-11 10:31     06 22 54.522998 -03 07 36.41364
 2018-Nov-11 10:32     06 22 54.462573 -03 07 36.00508
 2018-Nov-11 10:33     06 22 54.402130 -03 07 35.59650
 2018-Nov-11 10:34     06 22 54.341669 -03 07 35.18789
 2018-Nov-11 10:35     06 22 54.281190 -03 07 34.77925
 2018-Nov-11 10:36     06 22 54.220693 -03 07 34.37060
 2018-Nov-11 10:37     06 22 54.160179 -03 07 33.96192
 2018-Nov-11 10:38     06 22 54.099647 -03 07 33.55321
 2018-Nov-11 10:39     06 22 54.039098 -03 07 33.14448
 2018-Nov-11 10:40     06 22 53.978531 -03 07 32.73572
 2018-Nov-11 10:41     06 22 53.917947 -03 07 32.32694
 2018-Nov-11 10:42     06 22 53.857346 -03 07 31.91814
 2018-Nov-11 10:43     06 22 53.796727 -03 07 31.50931
 2018-Nov-11 10:44     06 22 53.736092 -03 07 31.10046
 2018-Nov-11 10:45     06 22 53.675439 -03 07 30.69158
 2018-Nov-11 10:46     06 22 53.614769 -03 07 30.28268
 2018-Nov-11 10:47     06 22 53.554083 -03 07 29.87375
 2018-Nov-11 10:48     06 22 53.493380 -03 07 29.46480
 2018-Nov-11 10:49     06 22 53.432660 -03 07 29.05582
 2018-Nov-11 10:50     06 22 53.371923 -03 07 28.64682
 2018-Nov-11 10:51     06 22 53.311170 -03 07 28.23779
 2018-Nov-11 10:52     06 22 53.250401 -03 07 27.82874
 2018-Nov-11 10:53     06 22 53.189615 -03 07 27.41966
 2018-Nov-11 10:54     06 22 53.128813 -03 07 27.01055
 2018-Nov-11 10:55     06 22 53.067994 -03 07 26.60143
 2018-Nov-11 10:56     06 22 53.007160 -03 07 26.19227
 2018-Nov-11 10:57     06 22 52.946310 -03 07 25.78309
 2018-Nov-11 10:58     06 22 52.885443 -03 07 25.37389
 2018-Nov-11 10:59     06 22 52.824561 -03 07 24.96466
 2018-Nov-11 11:00     06 22 52.763663 -03 07 24.55540
 2018-Nov-11 11:01     06 22 52.702750 -03 07 24.14612
 2018-Nov-11 11:02     06 22 52.641820 -03 07 23.73681
 2018-Nov-11 11:03     06 22 52.580876 -03 07 23.32748
 2018-Nov-11 11:04     06 22 52.519916 -03 07 22.91812
 2018-Nov-11 11:05     06 22 52.458940 -03 07 22.50874
 2018-Nov-11 11:06     06 22 52.397950 -03 07 22.09933
 2018-Nov-11 11:07     06 22 52.336944 -03 07 21.68989
 2018-Nov-11 11:08     06 22 52.275923 -03 07 21.28043
 2018-Nov-11 11:09     06 22 52.214887 -03 07 20.87094
 2018-Nov-11 11:10     06 22 52.153837 -03 07 20.46143
 2018-Nov-11 11:11     06 22 52.092771 -03 07 20.05189
 2018-Nov-11 11:12     06 22 52.031691 -03 07 19.64232
 2018-Nov-11 11:13     06 22 51.970597 -03 07 19.23273
 2018-Nov-11 11:14     06 22 51.909487 -03 07 18.82311
 2018-Nov-11 11:15     06 22 51.848364 -03 07 18.41346
 2018-Nov-11 11:16     06 22 51.787226 -03 07 18.00379
 2018-Nov-11 11:17     06 22 51.726074 -03 07 17.59409
 2018-Nov-11 11:18     06 22 51.664907 -03 07 17.18437
 2018-Nov-11 11:19     06 22 51.603727 -03 07 16.77462
 2018-Nov-11 11:20     06 22 51.542532 -03 07 16.36484
 2018-Nov-11 11:21     06 22 51.481324 -03 07 15.95504
 2018-Nov-11 11:22     06 22 51.420102 -03 07 15.54521
 2018-Nov-11 11:23     06 22 51.358866 -03 07 15.13535
 2018-Nov-11 11:24     06 22 51.297617 -03 07 14.72546
 2018-Nov-11 11:25     06 22 51.236354 -03 07 14.31555
 2018-Nov-11 11:26     06 22 51.175078 -03 07 13.90562
 2018-Nov-11 11:27     06 22 51.113788 -03 07 13.49565
 2018-Nov-11 11:28     06 22 51.052486 -03 07 13.08566
 2018-Nov-11 11:29     06 22 50.991170 -03 07 12.67564
 2018-Nov-11 11:30     06 22 50.929841 -03 07 12.26560
 2018-Nov-11 11:31     06 22 50.868499 -03 07 11.85552
 2018-Nov-11 11:32     06 22 50.807144 -03 07 11.44542
 2018-Nov-11 11:33     06 22 50.745777 -03 07 11.03530
 2018-Nov-11 11:34     06 22 50.684397 -03 07 10.62514
 2018-Nov-11 11:35     06 22 50.623004 -03 07 10.21496
 2018-Nov-11 11:36     06 22 50.561599 -03 07 09.80475
 2018-Nov-11 11:37     06 22 50.500181 -03 07 09.39452
 2018-Nov-11 11:38     06 22 50.438752 -03 07 08.98426
 2018-Nov-11 11:39     06 22 50.377310 -03 07 08.57397
 2018-Nov-11 11:40     06 22 50.315856 -03 07 08.16365
 2018-Nov-11 11:41     06 22 50.254390 -03 07 07.75330
 2018-Nov-11 11:42     06 22 50.192912 -03 07 07.34293
 2018-Nov-11 11:43     06 22 50.131422 -03 07 06.93253
 2018-Nov-11 11:44     06 22 50.069921 -03 07 06.52211
 2018-Nov-11 11:45     06 22 50.008408 -03 07 06.11165
 2018-Nov-11 11:46     06 22 49.946883 -03 07 05.70117
 2018-Nov-11 11:47     06 22 49.885347 -03 07 05.29066
 2018-Nov-11 11:48     06 22 49.823800 -03 07 04.88012
 2018-Nov-11 11:49     06 22 49.762242 -03 07 04.46955
 2018-Nov-11 11:50     06 22 49.700672 -03 07 04.05896
 2018-Nov-11 11:51     06 22 49.639092 -03 07 03.64834
 2018-Nov-11 11:52     06 22 49.577500 -03 07 03.23769
 2018-Nov-11 11:53     06 22 49.515898 -03 07 02.82701
 2018-Nov-11 11:54     06 22 49.454285 -03 07 02.41631
 2018-Nov-11 11:55     06 22 49.392661 -03 07 02.00558
 2018-Nov-11 11:56     06 22 49.331027 -03 07 01.59482
 2018-Nov-11 11:57     06 22 49.269383 -03 07 01.18403
 2018-Nov-11 11:58     06 22 49.207728 -03 07 00.77321
 2018-Nov-11 11:59     06 22 49.146063 -03 07 00.36237
 2018-Nov-11 12:00     06 22 49.084388 -03 06 59.95149
 2018-Nov-11 12:01     06 22 49.022703 -03 06 59.54059
 2018-Nov-11 12:02     06 22 48.961008 -03 06 59.12966
 2018-Nov-11 12:03     06 22 48.899303 -03 06 58.71871
 2018-Nov-11 12:04     06 22 48.837588 -03 06 58.30772
